{
  "type": "FeatureCollection",
  "features": [
    {
      "type": "Feature",
      "properties": {
        "norad_id": 54259,
        "name": "EUTELSAT 10B",
        "group": "eutelsat",
        "lat": 0.01541556250523523,
        "lon": -131.00102895250959,
        "alt_km": 35783.69913347478,
        "timestamp": "2025-12-06T09:34:16.589368+00:00",
        "meta_object_name": "EUTELSAT 10B",
        "meta_object_id": "2022-157A",
        "meta_epoch": "2025-12-05T22:18:14.798880",
        "meta_mean_motion": 1.00268186,
        "meta_eccentricity": 0.0001157,
        "meta_inclination": 0.0609,
        "meta_ra_of_asc_node": 104.8403,
        "meta_arg_of_pericenter": 77.592,
        "meta_mean_anomaly": 237.1051,
        "meta_ephemeris_type": 0,
        "meta_classification_type": "U",
        "meta_norad_cat_id": 54259,
        "meta_element_set_no": 999,
        "meta_rev_at_epoch": 1108,
        "meta_bstar": 0,
        "meta_mean_motion_dot": 7.7e-07,
        "meta_mean_motion_ddot": 0,
        "tle_line1": "1 54259U 22157A   25339.92933795  .00000077  00000+0  00000+0 0  9993",
        "tle_line2": "2 54259   0.0609 104.8403 0001157  77.5920 237.1051  1.00268186 11087"
      },
      "geometry": {
        "type": "Point",
        "coordinates": [
          -131.00102895250959,
          0.01541556250523523
        ]
      }
    },
    {
      "type": "Feature",
      "properties": {
        "norad_id": 59346,
        "name": "EUTELSAT 36D",
        "group": "eutelsat",
        "lat": -0.046364539074066555,
        "lon": -105.14703704177,
        "alt_km": 35784.527553273285,
        "timestamp": "2025-12-06T09:34:16.589379+00:00",
        "meta_object_name": "EUTELSAT 36D",
        "meta_object_id": "2024-059A",
        "meta_epoch": "2025-12-05T21:12:21.661920",
        "meta_mean_motion": 1.00272563,
        "meta_eccentricity": 7.535e-05,
        "meta_inclination": 0.0214,
        "meta_ra_of_asc_node": 349.7189,
        "meta_arg_of_pericenter": 331.5769,
        "meta_mean_anomaly": 107.5891,
        "meta_ephemeris_type": 0,
        "meta_classification_type": "U",
        "meta_norad_cat_id": 59346,
        "meta_element_set_no": 999,
        "meta_rev_at_epoch": 620,
        "meta_bstar": 0,
        "meta_mean_motion_dot": 0,
        "meta_mean_motion_ddot": 0,
        "tle_line1": "1 59346U 24059A   25339.88358405  .00000000  00000+0  00000+0 0  9998",
        "tle_line2": "2 59346   0.0214 349.7189 0000753 331.5769 107.5891  1.00272563  6201"
      },
      "geometry": {
        "type": "Point",
        "coordinates": [
          -105.14703704177,
          -0.046364539074066555
        ]
      }
    }
  ]
}